VCC A                   
1 44428U 98067QN  19330.38839456  .00009814  00000-0  15756-3 0  9993
2 44428  51.6418 274.8249 0002216 311.3621  48.7179 15.53723591 22745
ENTRYSAT                
1 44429U 98067QP  19330.56806481  .00009134  00000-0  14548-3 0  9999
2 44429  51.6411 273.7722 0001858 302.9008  57.1804 15.54045803 22775
VCC C                   
1 44430U 98067QQ  19330.75736997  .00010992  00000-0  17220-3 0  9990
2 44430  51.6414 272.7884 0002000 320.1945  39.8899 15.54265096 21633
VCC B                   
1 44431U 98067QR  19330.58313835  .00008576  00000-0  13865-3 0  9990
2 44431  51.6416 273.8734 0002338 310.0525  50.0261 15.53721427 22710
